NORAD_CAT_ID,OBJECT_NAME,OBJECT_TYPE,EPOCH,MEAN_MOTION,ECCENTRICITY,INCLINATION,RA_OF_ASC_NODE,ARG_OF_PERICENTER,MEAN_ANOMALY,BSTAR,MEAN_MOTION_DOT,MEAN_MOTION_DDOT,TLE_LINE0,TLE_LINE1,TLE_LINE2,SEMIMAJOR_AXIS,PERIOD,APOGEE,PERIGEE,DECAYED
52548.0,STARLINK-3931,PAYLOAD,2022-07-07 14:00:01,15.20615527,0.0001294,53.2177,29.8415,77.0163,235.3377,-0.034849,-0.00721308,0.0,0 STARLINK-3931,1 52548U 22051R   22188.58334491 -.00721308  00000-0 -34849-1 0  9994,2 52548  53.2177  29.8415 0001294  77.0163 235.3377 15.20615527  1308,6882.12,94.698,504.875,503.094,0.0
52548.0,STARLINK-3931,PAYLOAD,2022-07-07 22:00:00,15.20106746,0.0001319,53.2176,28.3224,70.1903,267.596,-0.035506,-0.0072384,0.0,0 STARLINK-3931,1 52548U 22051R   22188.91667824 -.00723840  00000-0 -35506-1 0  9994,2 52548  53.2176  28.3224 0001319  70.1903 267.5960 15.20106746  1306,6883.655,94.73,506.42800000000005,504.612,0.0
52548.0,STARLINK-3931,PAYLOAD,2022-07-08 04:25:16,15.21052929,9.82e-05,53.217,27.086,72.6704,287.4401,-0.010534,-0.00229911,0.0,0 STARLINK-3931,1 52548U 22051R   22189.18422381 -.00229911  00000-0 -10534-1 0  9995,2 52548  53.2170  27.0860 0000982  72.6704 287.4401 15.21052929  9148,6880.8,94.671,503.341,501.99,0.0
52548.0,STARLINK-3931,PAYLOAD,2022-07-08 08:00:01,15.19467686,0.0001303,53.2176,26.421,70.0887,28.6301,-0.036067,-0.00721809,0.0,0 STARLINK-3931,1 52548U 22051R   22189.33334491 -.00721809  00000-0 -36067-1 0  9998,2 52548  53.2176  26.4210 0001303  70.0887  28.6301 15.19467686  9161,6885.585,94.77,508.347,506.55300000000005,0.0
52548.0,STARLINK-3931,PAYLOAD,2022-07-08 14:00:01,15.19085329,0.0001264,53.2177,25.2822,73.7088,313.1081,-0.036434,-0.00721116,0.0,0 STARLINK-3931,1 52548U 22051R   22189.58334491 -.00721116  00000-0 -36434-1 0  9994,2 52548  53.2177  25.2822 0001264  73.7088 313.1081 15.19085329  1302,6886.741,94.794,509.476,507.735,0.0
52548.0,STARLINK-3931,PAYLOAD,2022-07-08 22:00:01,15.18576924,0.0001361999999999,53.2176,23.7664,64.0955,346.3787,-0.037155,-0.00724371,0.0,0 STARLINK-3931,1 52548U 22051R   22189.91668981 -.00724371  00000-0 -37155-1 0  9992,2 52548  53.2176  23.7664 0001362  64.0955 346.3787 15.18576924  1309,6888.278,94.826,511.081,509.204,0.0
52548.0,STARLINK-3931,PAYLOAD,2022-07-09 14:00:01,15.17555379,0.0001337,53.2177,20.7334,73.3215,22.4434,-0.038102,-0.00721396,0.0,0 STARLINK-3931,1 52548U 22051R   22190.58334491 -.00721396  00000-0 -38102-1 0  9990,2 52548  53.2177  20.7334 0001337  73.3215  22.4434 15.17555379  1306,6891.369000000002,94.889,514.155,512.312,0.0
52548.0,STARLINK-3931,PAYLOAD,2022-07-09 16:00:00,15.17428076,0.0001423,53.2178,20.3555,74.4995,116.7618,-0.038277,-0.00722016,0.0,0 STARLINK-3931,1 52548U 22051R   22190.66667824 -.00722016  00000-0 -38277-1 0  9991,2 52548  53.2178  20.3555 0001423  74.4995 116.7618 15.17428076  9369,6891.754,94.897,514.6,512.638,0.0
52548.0,STARLINK-3931,PAYLOAD,2022-07-09 20:00:01,15.17175063,0.0001291999999999,53.2176,19.5994,73.6016,308.5367,-0.038735,-0.00725107,0.0,0 STARLINK-3931,1 52548U 22051R   22190.83334491 -.00725107  00000-0 -38735-1 0  9994,2 52548  53.2176  19.5994 0001292  73.6016 308.5367 15.17175063  1306,6892.52,94.913,515.276,513.495,0.0
52548.0,STARLINK-3931,PAYLOAD,2022-07-10 14:00:01,15.16025396,0.0001405,53.2178,16.1955,76.6507,82.5469,-0.039812,-0.0072135,0.0,0 STARLINK-3931,1 52548U 22051R   22191.58334491 -.00721350  00000-0 -39812-1 0  9990,2 52548  53.2178  16.1955 0001405  76.6507  82.5469 15.16025396  1306,6896.004,94.985,518.8380000000002,516.9,0.0
52548.0,STARLINK-3931,PAYLOAD,2022-07-10 22:00:00,15.15514116,0.0001391,53.2177,14.6868,88.014,91.1017,-0.040265,-0.00719132,0.0,0 STARLINK-3931,1 52548U 22051R   22191.91667824 -.00719132  00000-0 -40265-1 0  9995,2 52548  53.2177  14.6868 0001391  88.0140  91.1017 15.15514116  9557,6897.555,95.017,520.38,518.461,0.0
52548.0,STARLINK-3931,PAYLOAD,2022-07-11 14:00:01,15.14495359,0.0001406999999999,53.2178,11.6683,80.8485,136.2665,-0.041566,-0.00721018,0.0,0 STARLINK-3931,1 52548U 22051R   22192.58334491 -.00721018  00000-0 -41566-1 0  9991,2 52548  53.2178  11.6683 0001407  80.8485 136.2665 15.14495359  1301,6900.648,95.081,523.484,521.5419999999998,0.0
52548.0,STARLINK-3931,PAYLOAD,2022-07-11 22:00:00,15.13983435,0.0001384,53.2176,10.163,92.2899,142.9052,-0.041948,-0.0071742,0.0,0 STARLINK-3931,1 52548U 22051R   22192.91667824 -.00717420  00000-0 -41948-1 0  9993,2 52548  53.2176  10.1630 0001384  92.2899 142.9052 15.13983435  9718,6902.203,95.113,525.024,523.113,0.0
52548.0,STARLINK-3931,PAYLOAD,2022-07-12 14:00:01,15.12965465,0.0001371,53.2176,7.1517,78.9886,190.5288,-0.043394,-0.00720881,0.0,0 STARLINK-3931,1 52548U 22051R   22193.58334491 -.00720881  00000-0 -43394-1 0  9990,2 52548  53.2176   7.1517 0001371  78.9886 190.5288 15.12965465  1300,6905.299,95.177,528.111,526.217,0.0
52548.0,STARLINK-3931,PAYLOAD,2022-07-12 22:00:00,15.12453593,0.0001319,53.2175,5.6499,84.0217,201.7373,-0.043783,-0.00717215,0.0,0 STARLINK-3931,1 52548U 22051R   22193.91667824 -.00717215  00000-0 -43783-1 0  9995,2 52548  53.2175   5.6499 0001319  84.0217 201.7373 15.12453593  1303,6906.857,95.21,529.633,527.811,0.0
52548.0,STARLINK-3931,PAYLOAD,2022-07-13 14:00:01,15.11435805,0.000132,53.2176,2.6456,77.6696,238.735,-0.04532,-0.0072125,0.0,0 STARLINK-3931,1 52548U 22051R   22194.58334491 -.00721250  00000-0 -45320-1 0  9993,2 52548  53.2176   2.6456 0001320  77.6696 238.7350 15.11435805  1305,6909.956999999999,95.274,532.735,530.91,0.0
52548.0,STARLINK-3931,PAYLOAD,2022-07-13 22:00:00,15.10924076,0.0001256,53.2174,1.1473,96.096,234.7118,-0.045734,-0.00717777,0.0,0 STARLINK-3931,1 52548U 22051R   22194.91667824 -.00717777  00000-0 -45734-1 0  9997,2 52548  53.2174   1.1473 0001256  96.0960 234.7118 15.10924076 10011,6911.518,95.306,534.251,532.514,0.0
52548.0,STARLINK-3931,PAYLOAD,2022-07-14 14:00:01,15.09906504,0.0001268,53.2175,358.1502,78.8454,278.9313,-0.04738,-0.00722553,0.0,0 STARLINK-3931,1 52548U 22051R   22195.58334491 -.00722553  00000-0 -47380-1 0  9999,2 52548  53.2175 358.1502 0001268  78.8454 278.9313 15.09906504  1302,6914.621999999999,95.37,537.364,535.611,0.0
52548.0,STARLINK-3931,PAYLOAD,2022-07-14 22:00:00,15.09310692,0.0001281,53.2173,356.6545,99.026,271.3308,-0.030866,-0.0046663999999999,0.0,0 STARLINK-3931,1 52548U 22051R   22195.91667824 -.00466640  00000-0 -30866-1 0  9998,2 52548  53.2173 356.6545 0001281  99.0260 271.3308 15.09310692  1303,6916.441999999999,95.408,539.193,537.4209999999998,0.0
52548.0,STARLINK-3931,PAYLOAD,2022-07-15 06:00:00,15.08894868,0.0001303,53.2174,355.1563,89.6227,292.7082,-0.0058843,-0.00092869,0.0,0 STARLINK-3931,1 52548U 22051R   22196.25001157 -.00092869  00000-0 -58843-2 0  9991,2 52548  53.2174 355.1563 0001303  89.6227 292.7082 15.08894868 10218,6917.7130000000025,95.434,540.479,538.6759999999998,0.0
52548.0,STARLINK-3931,PAYLOAD,2022-07-15 14:00:01,15.08837465,0.0001401,53.2175,353.6607,74.2994,319.6507,-6.8162e-05,-1.372e-05,0.0,0 STARLINK-3931,1 52548U 22051R   22196.58334491 -.00001372  00000-0 -68162-4 0  9993,2 52548  53.2175 353.6607 0001401  74.2994 319.6507 15.08837465 10267,6917.888000000001,95.438,540.722,538.784,0.0
52548.0,STARLINK-3931,PAYLOAD,2022-07-15 22:00:00,15.08840836,0.0001517,53.2151,352.1545,70.9561,334.5068,0.0018715,0.00029623,0.0,0 STARLINK-3931,1 52548U 22051R   22196.91667824  .00029623  00000-0  18715-2 0  9993,2 52548  53.2151 352.1545 0001517  70.9561 334.5068 15.08840836 10317,6917.878000000002,95.438,540.7919999999998,538.693,0.0
52548.0,STARLINK-3931,PAYLOAD,2022-07-16 14:00:01,15.08856411,0.0001392,53.2156,349.1607,76.6171,352.05400000000014,-0.0011008,-0.00017772,0.0,0 STARLINK-3931,1 52548U 22051R   22197.58334491 -.00017772  00000-0 -11008-2 0  9990,2 52548  53.2156 349.1607 0001392  76.6171 352.0540 15.08856411 10415,6917.83,95.437,540.658,538.732,0.0
52548.0,STARLINK-3931,PAYLOAD,2022-07-16 22:00:00,15.08839925,0.0001405,53.2155,347.6652,68.3348,11.9428,0.0021355,0.00033862,0.0,0 STARLINK-3931,1 52548U 22051R   22197.91667824  .00033862  00000-0  21355-2 0  9998,2 52548  53.2155 347.6652 0001405  68.3348  11.9428 15.08839925  1301,6917.880999999999,95.438,540.7180000000002,538.774,0.0
52548.0,STARLINK-3931,PAYLOAD,2022-07-17 14:00:01,15.08877224,0.0001406,53.2157,344.6716,75.741,27.7587,-0.0037349,-0.000593,0.0,0 STARLINK-3931,1 52548U 22051R   22198.58334491 -.00059300  00000-0 -37349-2 0  9990,2 52548  53.2157 344.6716 0001406  75.7410  27.7587 15.08877224 10567,6917.767,95.435,540.604,538.659,0.0
52548.0,STARLINK-3931,PAYLOAD,2022-07-17 22:00:00,15.08837298,0.0001416999999999,53.2162,343.1807,65.7131,49.3986,0.00036147,5.469e-05,0.0,0 STARLINK-3931,1 52548U 22051R   22198.91667824  .00005469  00000-0  36147-3 0  9997,2 52548  53.2162 343.1807 0001417  65.7131  49.3986 15.08837298  1301,6917.889,95.438,540.734,538.773,0.0
52548.0,STARLINK-3931,PAYLOAD,2022-07-18 06:00:00,15.08821657,0.0001249,53.2155,341.6779,79.4562,47.2434,0.0026121,0.00041508,0.0,0 STARLINK-3931,1 52548U 22051R   22199.25001157  .00041508  00000-0  26121-2 0  9990,2 52548  53.2155 341.6779 0001249  79.4562  47.2434 15.08821657 10663,6917.936,95.439,540.6659999999998,538.937,0.0
52548.0,STARLINK-3931,PAYLOAD,2022-07-18 14:00:01,15.08853498,0.0001371,53.2154,340.1826,76.3479,61.9399,-0.0029094,-0.0004631,0.0,0 STARLINK-3931,1 52548U 22051R   22199.58334491 -.00046310  00000-0 -29094-2 0  9996,2 52548  53.2154 340.1826 0001371  76.3479  61.9399 15.08853498  1300,6917.839,95.437,540.653,538.756,0.0
52548.0,STARLINK-3931,PAYLOAD,2022-07-18 22:00:00,15.088278099999998,0.0001404,53.2149,338.6868,70.1653,79.7156,0.001557,0.0002457,0.0,0 STARLINK-3931,1 52548U 22051R   22199.91667824  .00024570  00000-0  15570-2 0  9998,2 52548  53.2149 338.6868 0001404  70.1653  79.7156 15.08827810 10762,6917.918000000002,95.438,540.754,538.811,0.0
